{
    "links": {
        "self": "http://www.neowsapp.com/rest/v1/neo/3780645?api_key=iIulBulltgU6a56xZRHN4H3l9WmuAYTsLGpBGhQ2"
    },
    "id": "3780645",
    "neo_reference_id": "3780645",
    "name": "(2017 PU25)",
    "designation": "2017 PU25",
    "nasa_jpl_url": "http://ssd.jpl.nasa.gov/sbdb.cgi?sstr=3780645",
    "absolute_magnitude_h": 23.4,
    "estimated_diameter": {
        "kilometers": {
            "estimated_diameter_min": 0.0555334912,
            "estimated_diameter_max": 0.1241766613
        },
        "meters": {
            "estimated_diameter_min": 55.5334911581,
            "estimated_diameter_max": 124.1766612574
        },
        "miles": {
            "estimated_diameter_min": 0.0345069009,
            "estimated_diameter_max": 0.0771597762
        },
        "feet": {
            "estimated_diameter_min": 182.1964991311,
            "estimated_diameter_max": 407.4037573197
        }
    },
    "is_potentially_hazardous_asteroid": false,
    "close_approach_data": [
        {
            "close_approach_date": "2017-08-16",
            "close_approach_date_full": "2017-Aug-16 04:54",
            "epoch_date_close_approach": 1502859240000,
            "relative_velocity": {
                "kilometers_per_second": "7.5764776428",
                "kilometers_per_hour": "27275.3195141643",
                "miles_per_hour": "16947.8228392317"
            },
            "miss_distance": {
                "astronomical": "0.063865662",
                "lunar": "24.843742518",
                "kilometers": "9554167.00133994",
                "miles": "5936684.086933572"
            },
            "orbiting_body": "Earth"
        }
    ],
    "orbital_data": {
        "orbit_id": "9",
        "orbit_determination_date": "2017-09-20 06:19:03",
        "first_observation_date": "2017-08-14",
        "last_observation_date": "2017-09-20",
        "data_arc_in_days": 37,
        "observations_used": 61,
        "orbit_uncertainty": "7",
        "minimum_orbit_intersection": ".0548411",
        "jupiter_tisserand_invariant": "3.486",
        "epoch_osculation": "2459000.5",
        "eccentricity": ".5120674291042192",
        "semi_major_axis": "2.1832368424023",
        "inclination": "7.577563592095654",
        "ascending_node_longitude": "328.4888190347981",
        "orbital_period": "1178.283250402709",
        "perihelion_distance": "1.065272365387741",
        "perihelion_argument": "3.407541342149842",
        "aphelion_distance": "3.30120131941686",
        "perihelion_time": "2459166.488778135159",
        "mean_anomaly": "309.2855727956464",
        "mean_motion": ".3055292518814645",
        "equinox": "J2000",
        "orbit_class": {
            "orbit_class_type": "AMO",
            "orbit_class_description": "Near-Earth asteroid orbits similar to that of 1221 Amor",
            "orbit_class_range": "1.017 AU < q (perihelion) < 1.3 AU"
        }
    },
    "is_sentry_object": false
}